CCSDS_OMM_VERS = 2.0
CREATION_DATE  = 
ORIGINATOR     = 

OBJECT_NAME    = UNKNOWN
OBJECT_ID      = 
CENTER_NAME    = EARTH
REF_FRAME      = TEME
TIME_SYSTEM    = UTC
MEAN_ELEMENT_THEORY = SGP/SGP4

EPOCH          = 2026-01-20T03:21:43.997184
MEAN_MOTION    = 12.80669878
ECCENTRICITY   = .01820533
INCLINATION    = 102.8582
RA_OF_ASC_NODE = 134.1335
ARG_OF_PERICENTER = 312.2027
MEAN_ANOMALY   = 46.3726

EPHEMERIS_TYPE = 0
CLASSIFICATION_TYPE = U
NORAD_CAT_ID   = 270038
ELEMENT_SET_NO = 999
REV_AT_EPOCH   = 28531
BSTAR          = .56809274E-1
MEAN_MOTION_DOT = .13959E-3
MEAN_MOTION_DDOT = 0

CCSDS_OMM_VERS = 2.0
CREATION_DATE  = 
ORIGINATOR     = 

OBJECT_NAME    = UNKNOWN
OBJECT_ID      = 
CENTER_NAME    = EARTH
REF_FRAME      = TEME
TIME_SYSTEM    = UTC
MEAN_ELEMENT_THEORY = SGP/SGP4

EPOCH          = 2026-01-14T17:06:09.282816
MEAN_MOTION    = 14.04671799
ECCENTRICITY   = .00084177
INCLINATION    = 82.5523
RA_OF_ASC_NODE = 11.5777
ARG_OF_PERICENTER = 299.1020
MEAN_ANOMALY   = 60.9308

EPHEMERIS_TYPE = 0
CLASSIFICATION_TYPE = U
NORAD_CAT_ID   = 270039
ELEMENT_SET_NO = 999
REV_AT_EPOCH   = 31335
BSTAR          = .12001129E-2
MEAN_MOTION_DOT = .1935E-4
MEAN_MOTION_DDOT = 0

CCSDS_OMM_VERS = 2.0
CREATION_DATE  = 
ORIGINATOR     = 

OBJECT_NAME    = UNKNOWN
OBJECT_ID      = 
CENTER_NAME    = EARTH
REF_FRAME      = TEME
TIME_SYSTEM    = UTC
MEAN_ELEMENT_THEORY = SGP/SGP4

EPOCH          = 2026-01-04T08:29:34.001664
MEAN_MOTION    = 12.53355619
ECCENTRICITY   = .00271864
INCLINATION    = 101.4065
RA_OF_ASC_NODE = 48.9975
ARG_OF_PERICENTER = 180.3669
MEAN_ANOMALY   = 179.7388

EPHEMERIS_TYPE = 0
CLASSIFICATION_TYPE = U
NORAD_CAT_ID   = 270040
ELEMENT_SET_NO = 999
REV_AT_EPOCH   = 27934
BSTAR          = .41193787E-3
MEAN_MOTION_DOT = .23E-6
MEAN_MOTION_DDOT = 0

CCSDS_OMM_VERS = 2.0
CREATION_DATE  = 
ORIGINATOR     = 

OBJECT_NAME    = UNKNOWN
OBJECT_ID      = 
CENTER_NAME    = EARTH
REF_FRAME      = TEME
TIME_SYSTEM    = UTC
MEAN_ELEMENT_THEORY = SGP/SGP4

EPOCH          = 2026-01-11T00:36:13.965696
MEAN_MOTION    = 13.96298612
ECCENTRICITY   = .02191708
INCLINATION    = 98.4924
RA_OF_ASC_NODE = 122.1055
ARG_OF_PERICENTER = 293.9274
MEAN_ANOMALY   = 63.9073

EPHEMERIS_TYPE = 0
CLASSIFICATION_TYPE = U
NORAD_CAT_ID   = 270041
ELEMENT_SET_NO = 999
REV_AT_EPOCH   = 31112
BSTAR          = .11478643E-2
MEAN_MOTION_DOT = .1894E-4
MEAN_MOTION_DDOT = 0

CCSDS_OMM_VERS = 2.0
CREATION_DATE  = 
ORIGINATOR     = 

OBJECT_NAME    = UNKNOWN
OBJECT_ID      = 
CENTER_NAME    = EARTH
REF_FRAME      = TEME
TIME_SYSTEM    = UTC
MEAN_ELEMENT_THEORY = SGP/SGP4

EPOCH          = 2026-01-09T01:44:00.109536
MEAN_MOTION    = 12.26203820
ECCENTRICITY   = .01362916
INCLINATION    = 74.0224
RA_OF_ASC_NODE = 141.3181
ARG_OF_PERICENTER = 116.9073
MEAN_ANOMALY   = 244.5966

EPHEMERIS_TYPE = 0
CLASSIFICATION_TYPE = U
NORAD_CAT_ID   = 270042
ELEMENT_SET_NO = 999
REV_AT_EPOCH   = 27399
BSTAR          = .20752347E-3
MEAN_MOTION_DOT = .1E-6
MEAN_MOTION_DDOT = 0

CCSDS_OMM_VERS = 2.0
CREATION_DATE  = 
ORIGINATOR     = 

OBJECT_NAME    = UNKNOWN
OBJECT_ID      = 
CENTER_NAME    = EARTH
REF_FRAME      = TEME
TIME_SYSTEM    = UTC
MEAN_ELEMENT_THEORY = SGP/SGP4

EPOCH          = 2026-01-19T09:31:58.880928
MEAN_MOTION    = 13.92353666
ECCENTRICITY   = .02523687
INCLINATION    = 98.9089
RA_OF_ASC_NODE = 78.0149
ARG_OF_PERICENTER = 200.4528
MEAN_ANOMALY   = 158.6384

EPHEMERIS_TYPE = 0
CLASSIFICATION_TYPE = U
NORAD_CAT_ID   = 270043
ELEMENT_SET_NO = 999
REV_AT_EPOCH   = 31077
BSTAR          = .11663651E-2
MEAN_MOTION_DOT = .1903E-4
MEAN_MOTION_DDOT = 0

CCSDS_OMM_VERS = 2.0
CREATION_DATE  = 
ORIGINATOR     = 

OBJECT_NAME    = UNKNOWN
OBJECT_ID      = 
CENTER_NAME    = EARTH
REF_FRAME      = TEME
TIME_SYSTEM    = UTC
MEAN_ELEMENT_THEORY = SGP/SGP4

EPOCH          = 2026-01-14T17:51:25.803360
MEAN_MOTION    = 13.00604451
ECCENTRICITY   = .00147167
INCLINATION    = 90.2507
RA_OF_ASC_NODE = 9.9389
ARG_OF_PERICENTER = 280.3188
MEAN_ANOMALY   = 79.6275

EPHEMERIS_TYPE = 0
CLASSIFICATION_TYPE = U
NORAD_CAT_ID   = 270044
ELEMENT_SET_NO = 999
REV_AT_EPOCH   = 29086
BSTAR          = .28279418E-2
MEAN_MOTION_DOT = .866E-5
MEAN_MOTION_DDOT = 0

CCSDS_OMM_VERS = 2.0
CREATION_DATE  = 
ORIGINATOR     = 

OBJECT_NAME    = UNKNOWN
OBJECT_ID      = 
CENTER_NAME    = EARTH
REF_FRAME      = TEME
TIME_SYSTEM    = UTC
MEAN_ELEMENT_THEORY = SGP/SGP4

EPOCH          = 2026-01-16T05:30:48.943296
MEAN_MOTION    = 12.96424997
ECCENTRICITY   = .0038438
INCLINATION    = 90.2501
RA_OF_ASC_NODE = 9.9583
ARG_OF_PERICENTER = 170.1046
MEAN_ANOMALY   = 190.0839

EPHEMERIS_TYPE = 0
CLASSIFICATION_TYPE = U
NORAD_CAT_ID   = 270045
ELEMENT_SET_NO = 999
REV_AT_EPOCH   = 29046
BSTAR          = -.61272353E-3
MEAN_MOTION_DOT = -.168E-5
MEAN_MOTION_DDOT = 0

CCSDS_OMM_VERS = 2.0
CREATION_DATE  = 
ORIGINATOR     = 

OBJECT_NAME    = UNKNOWN
OBJECT_ID      = 
CENTER_NAME    = EARTH
REF_FRAME      = TEME
TIME_SYSTEM    = UTC
MEAN_ELEMENT_THEORY = SGP/SGP4

EPOCH          = 2026-01-17T15:44:39.679584
MEAN_MOTION    = 12.62579836
ECCENTRICITY   = .00573009
INCLINATION    = 73.9958
RA_OF_ASC_NODE = 357.6554
ARG_OF_PERICENTER = 55.9320
MEAN_ANOMALY   = 304.7158

EPHEMERIS_TYPE = 0
CLASSIFICATION_TYPE = U
NORAD_CAT_ID   = 270046
ELEMENT_SET_NO = 999
REV_AT_EPOCH   = 28298
BSTAR          = .22731735E-3
MEAN_MOTION_DOT = .25E-6
MEAN_MOTION_DDOT = 0

CCSDS_OMM_VERS = 2.0
CREATION_DATE  = 
ORIGINATOR     = 

OBJECT_NAME    = UNKNOWN
OBJECT_ID      = 
CENTER_NAME    = EARTH
REF_FRAME      = TEME
TIME_SYSTEM    = UTC
MEAN_ELEMENT_THEORY = SGP/SGP4

EPOCH          = 2026-01-20T01:00:37.295712
MEAN_MOTION    = 13.77796644
ECCENTRICITY   = .00322622
INCLINATION    = 82.9672
RA_OF_ASC_NODE = 246.7332
ARG_OF_PERICENTER = 273.1166
MEAN_ANOMALY   = 86.6300

EPHEMERIS_TYPE = 0
CLASSIFICATION_TYPE = U
NORAD_CAT_ID   = 270053
ELEMENT_SET_NO = 999
REV_AT_EPOCH   = 30885
BSTAR          = .4553958E-3
MEAN_MOTION_DOT = .472E-5
MEAN_MOTION_DDOT = 0

CCSDS_OMM_VERS = 2.0
CREATION_DATE  = 
ORIGINATOR     = 

OBJECT_NAME    = UNKNOWN
OBJECT_ID      = 
CENTER_NAME    = EARTH
REF_FRAME      = TEME
TIME_SYSTEM    = UTC
MEAN_ELEMENT_THEORY = SGP/SGP4

EPOCH          = 2026-01-11T16:11:39.113664
MEAN_MOTION    = 12.98536401
ECCENTRICITY   = .00296564
INCLINATION    = 90.2147
RA_OF_ASC_NODE = 344.4733
ARG_OF_PERICENTER = 64.2657
MEAN_ANOMALY   = 296.1520

EPHEMERIS_TYPE = 0
CLASSIFICATION_TYPE = U
NORAD_CAT_ID   = 270054
ELEMENT_SET_NO = 999
REV_AT_EPOCH   = 29020
BSTAR          = -.39914688E-3
MEAN_MOTION_DOT = -.11E-5
MEAN_MOTION_DDOT = 0

CCSDS_OMM_VERS = 2.0
CREATION_DATE  = 
ORIGINATOR     = 

OBJECT_NAME    = UNKNOWN
OBJECT_ID      = 
CENTER_NAME    = EARTH
REF_FRAME      = TEME
TIME_SYSTEM    = UTC
MEAN_ELEMENT_THEORY = SGP/SGP4

EPOCH          = 2026-01-07T16:44:06.273312
MEAN_MOTION    = 12.99294261
ECCENTRICITY   = .00323384
INCLINATION    = 90.2430
RA_OF_ASC_NODE = 1.4279
ARG_OF_PERICENTER = 63.6286
MEAN_ANOMALY   = 296.8150

EPHEMERIS_TYPE = 0
CLASSIFICATION_TYPE = U
NORAD_CAT_ID   = 270055
ELEMENT_SET_NO = 999
REV_AT_EPOCH   = 28997
BSTAR          = -.55550336E-3
MEAN_MOTION_DOT = -.158E-5
MEAN_MOTION_DDOT = 0

CCSDS_OMM_VERS = 2.0
CREATION_DATE  = 
ORIGINATOR     = 

OBJECT_NAME    = UNKNOWN
OBJECT_ID      = 
CENTER_NAME    = EARTH
REF_FRAME      = TEME
TIME_SYSTEM    = UTC
MEAN_ELEMENT_THEORY = SGP/SGP4

EPOCH          = 2026-01-09T23:20:39.373152
MEAN_MOTION    = 12.46190399
ECCENTRICITY   = .00834213
INCLINATION    = 101.5892
RA_OF_ASC_NODE = 109.4495
ARG_OF_PERICENTER = 90.2646
MEAN_ANOMALY   = 270.7982

EPHEMERIS_TYPE = 0
CLASSIFICATION_TYPE = U
NORAD_CAT_ID   = 270056
ELEMENT_SET_NO = 999
REV_AT_EPOCH   = 27847
BSTAR          = .17717491E-2
MEAN_MOTION_DOT = .217E-5
MEAN_MOTION_DDOT = 0

CCSDS_OMM_VERS = 2.0
CREATION_DATE  = 
ORIGINATOR     = 

OBJECT_NAME    = UNKNOWN
OBJECT_ID      = 
CENTER_NAME    = EARTH
REF_FRAME      = TEME
TIME_SYSTEM    = UTC
MEAN_ELEMENT_THEORY = SGP/SGP4

EPOCH          = 2026-01-14T17:15:34.299936
MEAN_MOTION    = 12.96036072
ECCENTRICITY   = .00431332
INCLINATION    = 90.2505
RA_OF_ASC_NODE = 9.7854
ARG_OF_PERICENTER = 193.2517
MEAN_ANOMALY   = 166.7473

EPHEMERIS_TYPE = 0
CLASSIFICATION_TYPE = U
NORAD_CAT_ID   = 270057
ELEMENT_SET_NO = 999
REV_AT_EPOCH   = 29026
BSTAR          = .12373128E-2
MEAN_MOTION_DOT = .361E-5
MEAN_MOTION_DDOT = 0

CCSDS_OMM_VERS = 2.0
CREATION_DATE  = 
ORIGINATOR     = 

OBJECT_NAME    = UNKNOWN
OBJECT_ID      = 
CENTER_NAME    = EARTH
REF_FRAME      = TEME
TIME_SYSTEM    = UTC
MEAN_ELEMENT_THEORY = SGP/SGP4

EPOCH          = 2026-01-16T05:04:57.648576
MEAN_MOTION    = 12.97951593
ECCENTRICITY   = .00299151
INCLINATION    = 90.2346
RA_OF_ASC_NODE = 1.9917
ARG_OF_PERICENTER = 79.4881
MEAN_ANOMALY   = 280.9608

EPHEMERIS_TYPE = 0
CLASSIFICATION_TYPE = U
NORAD_CAT_ID   = 270058
ELEMENT_SET_NO = 999
REV_AT_EPOCH   = 29082
BSTAR          = -.94331306E-3
MEAN_MOTION_DOT = -.268E-5
MEAN_MOTION_DDOT = 0

CCSDS_OMM_VERS = 2.0
CREATION_DATE  = 
ORIGINATOR     = 

OBJECT_NAME    = UNKNOWN
OBJECT_ID      = 
CENTER_NAME    = EARTH
REF_FRAME      = TEME
TIME_SYSTEM    = UTC
MEAN_ELEMENT_THEORY = SGP/SGP4

EPOCH          = 2026-01-16T05:54:19.922688
MEAN_MOTION    = 12.23005833
ECCENTRICITY   = .01302787
INCLINATION    = 73.9988
RA_OF_ASC_NODE = 1.3317
ARG_OF_PERICENTER = 346.8015
MEAN_ANOMALY   = 12.9624

EPHEMERIS_TYPE = 0
CLASSIFICATION_TYPE = U
NORAD_CAT_ID   = 270059
ELEMENT_SET_NO = 999
REV_AT_EPOCH   = 27420
BSTAR          = .50716446E-3
MEAN_MOTION_DOT = .41E-6
MEAN_MOTION_DDOT = 0

